{"type": "FeatureCollection", "features": [ {"type": "Feature", "properties": {"norad_id": 66645, "name": "SHENZHOU-22", "group": "last-30-days", "lat": -28.749964834796003, "lon": -105.90088056565142, "alt_km": 396.35272257073575, "timestamp": "2025-12-26T14:28:46.394370+00:00", "meta": {"OBJECT_NAME": "SHENZHOU-22", "OBJECT_ID": "2025-272A", "EPOCH": "2025-12-26T05:27:30.670848", "MEAN_MOTION": 15.59708409, "ECCENTRICITY": 0.00085179, "INCLINATION": 41.468, "RA_OF_ASC_NODE": 294.7909, "ARG_OF_PERICENTER": 149.5046, "MEAN_ANOMALY": 210.6289, "EPHEMERIS_TYPE": 0, "CLASSIFICATION_TYPE": "U", "NORAD_CAT_ID": 66645, "ELEMENT_SET_NO": 999, "REV_AT_EPOCH": 26598, "BSTAR": 0.00023601706, "MEAN_MOTION_DOT": 0.00019151, "MEAN_MOTION_DDOT": 0}, "tle": {"line1": "1 66645U 25272A   25360.22743832  .00019151  00000+0  23602-3 0  9994", "line2": "2 66645  41.4680 294.7909 0008517 149.5046 210.6289 15.59708409265988"}}, "geometry": {"type": "Point", "coordinates": [-105.90088056565142, -28.749964834796003]}}, {"type": "Feature", "properties": {"norad_id": 66647, "name": "COSMOS 2597 (RODNIK-S 22)", "group": "last-30-days", "lat": 36.45634471979693, "lon": 92.25601844421223, "alt_km": 1497.676215369489, "timestamp": "2025-12-26T14:28:46.394381+00:00", "meta": {"OBJECT_NAME": "COSMOS 2597 (RODNIK-S 22)", "OBJECT_ID": "2025-273A", "EPOCH": "2025-12-26T05:58:37.985664", "MEAN_MOTION": 12.41952304, "ECCENTRICITY": 0.00075998, "INCLINATION": 82.4994, "RA_OF_ASC_NODE": 278.0609, "ARG_OF_PERICENTER": 254.1413, "MEAN_ANOMALY": 105.8829, "EPHEMERIS_TYPE": 0, "CLASSIFICATION_TYPE": "U", "NORAD_CAT_ID": 66647, "ELEMENT_SET_NO": 999, "REV_AT_EPOCH": 381, "BSTAR": 0.00016676657, "MEAN_MOTION_DOT": 3.3e-07, "MEAN_MOTION_DDOT": 0}, "tle": {"line1": "1 66647U 25273A   25360.24905076  .00000033  00000+0  16677-3 0  9992", "line2": "2 66647  82.4994 278.0609 0007599 254.1413 105.8829 12.41952304  3815"}}, "geometry": {"type": "Point", "coordinates": [92.25601844421223, 36.45634471979693]}}, {"type": "Feature", "properties": {"norad_id": 66648, "name": "COSMOS 2598 (RODNIK-S 23)", "group": "last-30-days", "lat": -61.93786900968526, "lon": 112.12422085523552, "alt_km": 1495.0110681588076, "timestamp": "2025-12-26T14:28:46.394393+00:00", "meta": {"OBJECT_NAME": "COSMOS 2598 (RODNIK-S 23)", "OBJECT_ID": "2025-273B", "EPOCH": "2025-12-26T05:27:06.894432", "MEAN_MOTION": 12.43233693, "ECCENTRICITY": 0.00082328, "INCLINATION": 82.5032, "RA_OF_ASC_NODE": 278.0592, "ARG_OF_PERICENTER": 204.7106, "MEAN_ANOMALY": 155.3581, "EPHEMERIS_TYPE": 0, "CLASSIFICATION_TYPE": "U", "NORAD_CAT_ID": 66648, "ELEMENT_SET_NO": 999, "REV_AT_EPOCH": 381, "BSTAR": 0.00016649005, "MEAN_MOTION_DOT": 3.3e-07, "MEAN_MOTION_DDOT": 0}, "tle": {"line1": "1 66648U 25273B   25360.22716313  .00000033  00000+0  16649-3 0  9994", "line2": "2 66648  82.5032 278.0592 0008232 204.7106 155.3581 12.43233693  3816"}}, "geometry": {"type": "Point", "coordinates": [112.12422085523552, -61.93786900968526]}}, {"type": "Feature", "properties": {"norad_id": 66649, "name": "COSMOS 2599 (RODNIK-S 24)", "group": "last-30-days", "lat": 80.75744503311005, "lon": -28.13096763312327, "alt_km": 1498.9098715631853, "timestamp": "2025-12-26T14:28:46.394405+00:00", "meta": {"OBJECT_NAME": "COSMOS 2599 (RODNIK-S 24)", "OBJECT_ID": "2025-273C", "EPOCH": "2025-12-26T06:17:11.520096", "MEAN_MOTION": 12.41152378, "ECCENTRICITY": 0.00063425, "INCLINATION": 82.505, "RA_OF_ASC_NODE": 278.0895, "ARG_OF_PERICENTER": 242.1037, "MEAN_ANOMALY": 117.94, "EPHEMERIS_TYPE": 0, "CLASSIFICATION_TYPE": "U", "NORAD_CAT_ID": 66649, "ELEMENT_SET_NO": 999, "REV_AT_EPOCH": 381, "BSTAR": 0.00024799989, "MEAN_MOTION_DOT": 4.3e-07, "MEAN_MOTION_DDOT": 0}, "tle": {"line1": "1 66649U 25273C   25360.26193889  .00000043  00000+0  24800-3 0  9995", "line2": "2 66649  82.5050 278.0895 0006342 242.1037 117.9400 12.41152378  3814"}}, "geometry": {"type": "Point", "coordinates": [-28.13096763312327, 80.75744503311005]}}, {"type": "Feature", "properties": {"norad_id": 66650, "name": "BEE-1000", "group": "last-30-days", "lat": 5.706259444448875, "lon": 108.3161470429241, "alt_km": 587.9154952769186, "timestamp": "2025-12-26T14:28:46.394416+00:00", "meta": {"OBJECT_NAME": "BEE-1000", "OBJECT_ID": "2025-274A", "EPOCH": "2025-12-26T00:49:18.623712", "MEAN_MOTION": 14.91705123, "ECCENTRICITY": 0.00111777, "INCLINATION": 97.7406, "RA_OF_ASC_NODE": 286.9787, "ARG_OF_PERICENTER": 202.6994, "MEAN_ANOMALY": 157.3732, "EPHEMERIS_TYPE": 0, "CLASSIFICATION_TYPE": "U", "NORAD_CAT_ID": 66650, "ELEMENT_SET_NO": 999, "REV_AT_EPOCH": 438, "BSTAR": 0.0001675141, "MEAN_MOTION_DOT": 1.631e-05, "MEAN_MOTION_DDOT": 0}, "tle": {"line1": "1 66650U 25274A   25360.03424333  .00001631  00000+0  16751-3 0  9994", "line2": "2 66650  97.7406 286.9787 0011177 202.6994 157.3732 14.91705123  4380"}}, "geometry": {"type": "Point", "coordinates": [108.3161470429241, 5.706259444448875]}}, {"type": "Feature", "properties": {"norad_id": 66651, "name": "2025-274B", "group": "last-30-days", "lat": -7.268514885772639, "lon": 106.54747537539544, "alt_km": 588.1796510155091, "timestamp": "2025-12-26T14:28:46.394426+00:00", "meta": {"OBJECT_NAME": "2025-274B", "OBJECT_ID": "2025-274B", "EPOCH": "2025-12-26T05:35:39.357888", "MEAN_MOTION": 14.91896477, "ECCENTRICITY": 0.00113841, "INCLINATION": 97.74, "RA_OF_ASC_NODE": 287.1779, "ARG_OF_PERICENTER": 200.1426, "MEAN_ANOMALY": 159.9345, "EPHEMERIS_TYPE": 0, "CLASSIFICATION_TYPE": "U", "NORAD_CAT_ID": 66651, "ELEMENT_SET_NO": 999, "REV_AT_EPOCH": 441, "BSTAR": 0.00040477809, "MEAN_MOTION_DOT": 4.042e-05, "MEAN_MOTION_DDOT": 0}, "tle": {"line1": "1 66651U 25274B   25360.23309442  .00004042  00000+0  40478-3 0  9992", "line2": "2 66651  97.7400 287.1779 0011384 200.1426 159.9345 14.91896477  4417"}}, "geometry": {"type": "Point", "coordinates": [106.54747537539544, -7.268514885772639]}}, {"type": "Feature", "properties": {"norad_id": 66652, "name": "2025-274C", "group": "last-30-days", "lat": -19.50217508512764, "lon": 104.78719287803658, "alt_km": 589.3827399145412, "timestamp": "2025-12-26T14:28:46.394436+00:00", "meta": {"OBJECT_NAME": "2025-274C", "OBJECT_ID": "2025-274C", "EPOCH": "2025-12-26T05:32:22.270848", "MEAN_MOTION": 14.91980324, "ECCENTRICITY": 0.00109079, "INCLINATION": 97.7406, "RA_OF_ASC_NODE": 287.1825, "ARG_OF_PERICENTER": 206.9839, "MEAN_ANOMALY": 153.0814, "EPHEMERIS_TYPE": 0, "CLASSIFICATION_TYPE": "U", "NORAD_CAT_ID": 66652, "ELEMENT_SET_NO": 999, "REV_AT_EPOCH": 441, "BSTAR": 0.00033904345, "MEAN_MOTION_DOT": 3.383e-05, "MEAN_MOTION_DDOT": 0}, "tle": {"line1": "1 66652U 25274C   25360.23081332  .00003383  00000+0  33904-3 0  9991", "line2": "2 66652  97.7406 287.1825 0010907 206.9839 153.0814 14.91980324  4419"}}, "geometry": {"type": "Point", "coordinates": [104.78719287803658, -19.50217508512764]}}, {"type": "Feature", "properties": {"norad_id": 66653, "name": "2025-274D", "group": "last-30-days", "lat": -19.815859962067144, "lon": 104.73864498715807, "alt_km": 588.735776802544, "timestamp": "2025-12-26T14:28:46.394447+00:00", "meta": {"OBJECT_NAME": "2025-274D", "OBJECT_ID": "2025-274D", "EPOCH": "2025-12-26T00:42:33.283296", "MEAN_MOTION": 14.91968008, "ECCENTRICITY": 0.00118768, "INCLINATION": 97.7404, "RA_OF_ASC_NODE": 286.9844, "ARG_OF_PERICENTER": 204.3083, "MEAN_ANOMALY": 155.7577, "EPHEMERIS_TYPE": 0, "CLASSIFICATION_TYPE": "U", "NORAD_CAT_ID": 66653, "ELEMENT_SET_NO": 999, "REV_AT_EPOCH": 438, "BSTAR": 0.00025672676, "MEAN_MOTION_DOT": 2.547e-05, "MEAN_MOTION_DDOT": 0}, "tle": {"line1": "1 66653U 25274D   25360.02955189  .00002547  00000+0  25673-3 0  9994", "line2": "2 66653  97.7404 286.9844 0011876 204.3083 155.7577 14.91968008  4381"}}, "geometry": {"type": "Point", "coordinates": [104.73864498715807, -19.815859962067144]}}, {"type": "Feature", "properties": {"norad_id": 66654, "name": "JACK E", "group": "last-30-days", "lat": -38.33066744485781, "lon": 101.38337773107014, "alt_km": 589.2948691305319, "timestamp": "2025-12-26T14:28:46.394458+00:00", "meta": {"OBJECT_NAME": "JACK E", "OBJECT_ID": "2025-274E", "EPOCH": "2025-12-26T05:27:19.740384", "MEAN_MOTION": 14.92155533, "ECCENTRICITY": 0.0012427, "INCLINATION": 97.7406, "RA_OF_ASC_NODE": 287.1875, "ARG_OF_PERICENTER": 205.3065, "MEAN_ANOMALY": 154.7547, "EPHEMERIS_TYPE": 0, "CLASSIFICATION_TYPE": "U", "NORAD_CAT_ID": 66654, "ELEMENT_SET_NO": 999, "REV_AT_EPOCH": 441, "BSTAR": 0.00031647472, "MEAN_MOTION_DOT": 3.169e-05, "MEAN_MOTION_DDOT": 0}, "tle": {"line1": "1 66654U 25274E   25360.22731181  .00003169  00000+0  31647-3 0  9990", "line2": "2 66654  97.7406 287.1875 0012427 205.3065 154.7547 14.92155533  4417"}}, "geometry": {"type": "Point", "coordinates": [101.38337773107014, -38.33066744485781]}}, {"type": "Feature", "properties": {"norad_id": 66655, "name": "2025-274F", "group": "last-30-days", "lat": 4.892698687690907, "lon": 108.19378566435319, "alt_km": 599.3553470361849, "timestamp": "2025-12-26T14:28:46.394471+00:00", "meta": {"OBJECT_NAME": "2025-274F", "OBJECT_ID": "2025-274F", "EPOCH": "2025-12-26T05:38:42.671040", "MEAN_MOTION": 14.91202947, "ECCENTRICITY": 0.00042305, "INCLINATION": 97.7335, "RA_OF_ASC_NODE": 287.1665, "ARG_OF_PERICENTER": 337.3018, "MEAN_ANOMALY": 22.8013, "EPHEMERIS_TYPE": 0, "CLASSIFICATION_TYPE": "U", "NORAD_CAT_ID": 66655, "ELEMENT_SET_NO": 999, "REV_AT_EPOCH": 441, "BSTAR": 6.965836e-06, "MEAN_MOTION_DOT": 1.4e-07, "MEAN_MOTION_DDOT": 0}, "tle": {"line1": "1 66655U 25274F   25360.23521610  .00000014  00000+0  69658-5 0  9997", "line2": "2 66655  97.7335 287.1665 0004230 337.3018  22.8013 14.91202947  4417"}}, "geometry": {"type": "Point", "coordinates": [108.19378566435319, 4.892698687690907]}}]}